[{"OBJECT_NAME":"FLOCK 4G-4","OBJECT_ID":"2025-009BC","EPOCH":"2026-03-09T18:04:48.344448","MEAN_MOTION":15.26803327,"ECCENTRICITY":0.00015979,"INCLINATION":97.3994,"RA_OF_ASC_NODE":150.7963,"ARG_OF_PERICENTER":343.4316,"MEAN_ANOMALY":16.687,"EPHEMERIS_TYPE":0,"CLASSIFICATION_TYPE":"U","NORAD_CAT_ID":62659,"ELEMENT_SET_NO":999,"REV_AT_EPOCH":12132,"BSTAR":0.00045294179,"MEAN_MOTION_DOT":0.00011866,"MEAN_MOTION_DDOT":0},{"OBJECT_NAME":"STARLINK-34169","OBJECT_ID":"2025-101F","EPOCH":"2026-03-09T05:00:15.716736","MEAN_MOTION":15.27555344,"ECCENTRICITY":0.00019194,"INCLINATION":43.0053,"RA_OF_ASC_NODE":0.5107,"ARG_OF_PERICENTER":260.2441,"MEAN_ANOMALY":99.8194,"EPHEMERIS_TYPE":0,"CLASSIFICATION_TYPE":"U","NORAD_CAT_ID":63999,"ELEMENT_SET_NO":999,"REV_AT_EPOCH":4698,"BSTAR":0.0012345553,"MEAN_MOTION_DOT":0.00033841,"MEAN_MOTION_DDOT":0}]
