FLOCK 4G-4              
1 62659U 25009BC  26068.75333732  .00011866  00000+0  45294-3 0  9997
2 62659  97.3994 150.7963 0001598 343.4316  16.6870 15.26803327121323
STARLINK-34169          
1 63999U 25101F   26068.20851524  .00033841  00000+0  12346-2 0  9990
2 63999  43.0053   0.5107 0001919 260.2441  99.8194 15.27555344 46983
